[Satellite]
VERSION=1.1
NAME=COSMOS 1833
NICKNAME=COSMOS 1833
TLE1=1 17589U 87027A   18020.76559250 -.00000129  00000-0 -43247-4 0  9992
TLE2=2 17589  70.9239  87.5688 0031194 333.0945  26.8556 14.12909981590807
